ONEWEB-0707             
1 61612U 24188U   25289.48569598 -.00000019  00000+0 -90682-4 0  9999
2 61612  87.8770  84.8246 0002269  92.5297 267.6091 13.10375960 51406
ONEWEB-0708             
1 61613U 24188V   25289.50392786  .00005853  00000+0  16710-1 0  9992
2 61613  87.8764  84.8628 0002208  76.6134 283.5240 13.10411818 51383
